X,Y,OBJECTID,SCHOOL_NAME,SCHOOL_TYPE,TYPE_DESC,GRADES,ADDRESS,CITY,ZIP,WEB_ADDRESS,PHONE,REGION,SCH_YR,GlobalID,CreationDate,Creator,EditDate,Editor
-77.264810598451,38.9466317649954,"4695",COLVIN RUN,ES,Elementary School,K-6,1400 TRAP RD,VIENNA,"22182",https://colvinrunes.fcps.edu/,"7037573000","1",2023_24,a1e3e37e-50ef-4337-ab6a-1d6c4c2e07a7,2023/10/15 05:02:31.391+00,FairfaxCounty,2023/10/15 05:02:31.391+00,FairfaxCounty
-77.4045884272331,38.9463751301116,"4696",MCNAIR,ES,Elementary School,K-2,2499 THOMAS JEFFERSON DR,HERNDON,"20171",https://mcnaires.fcps.edu/,"7037934800","5",2023_24,c027d45e-054e-4e3b-b180-8cb88d19d9a0,2023/10/15 05:02:31.391+00,FairfaxCounty,2023/10/15 05:02:31.391+00,FairfaxCounty
-77.4191932903693,38.9520856051523,"4697",COATES,ES,Elementary School,K-6,2480 RIVER BIRCH RD,HERNDON,"20171",https://coateses.fcps.edu/,"7037133000","5",2023_24,a6194f8f-0b1f-4af3-ac04-342ef159ad72,2023/10/15 05:02:31.391+00,FairfaxCounty,2023/10/15 05:02:31.391+00,FairfaxCounty
-77.1746119310306,38.9353402365019,"4698",FRANKLIN SHERMAN,ES,Elementary School,K-6,6633 BRAWNER ST,MCLEAN,"22101",https://franklinshermanes.fcps.edu/,"7035067900","2",2023_24,f86a2a9c-2d78-425f-af61-5a1484c8590c,2023/10/15 05:02:31.391+00,FairfaxCounty,2023/10/15 05:02:31.391+00,FairfaxCounty
-77.228440973071,38.9394067360196,"4699",SPRING HILL,ES,Elementary School,K-6,8201 LEWINSVILLE RD,MCLEAN,"22102",https://springhilles.fcps.edu/,"7035063400","1",2023_24,0dfe6b8a-6b33-4317-97b3-ba6f89a68d61,2023/10/15 05:02:31.391+00,FairfaxCounty,2023/10/15 05:02:31.391+00,FairfaxCounty
-77.3202214852457,38.9402710496429,"4700",SUNRISE VALLEY,ES,Elementary School,K-6,10824 CROSS SCHOOL RD,RESTON,"20191",https://sunrisevalleyes.fcps.edu/,"7037153800","1",2023_24,c31e3351-c413-4b06-a7eb-70e600d94876,2023/10/15 05:02:31.391+00,FairfaxCounty,2023/10/15 05:02:31.391+00,FairfaxCounty
-77.3429757926263,38.9367391154123,"4701",TERRASET,ES,Elementary School,K-6,11411 RIDGE HEIGHTS RD,RESTON,"20191",https://terrasetes.fcps.edu/,"7033905600","1",2023_24,e7daa22c-95e6-42ce-b851-0903edd9fa4a,2023/10/15 05:02:31.391+00,FairfaxCounty,2023/10/15 05:02:31.391+00,FairfaxCounty
-77.3614994004498,38.9322275756603,"4702",HUNTERS WOODS,ES,Elementary School,K-6,2401 COLTS NECK RD,RESTON,"20191",https://hunterswoodses.fcps.edu/,"7032627400","1",2023_24,637171f0-e3af-424f-8dbf-40fafda66747,2023/10/15 05:02:31.391+00,FairfaxCounty,2023/10/15 05:02:31.391+00,FairfaxCounty
-77.3710324118935,38.9427106791701,"4703",DOGWOOD,ES,Elementary School,K-6,12300 GLADE DR,RESTON,"20191",https://dogwoodes.fcps.edu/,"7032623100","1",2023_24,4391a6ec-bcdb-4200-a62a-56212dfb5ae7,2023/10/15 05:02:31.391+00,FairfaxCounty,2023/10/15 05:02:31.391+00,FairfaxCounty
-77.4143931786717,38.9356907789072,"4704",FLORIS,ES,Elementary School,K-6,2708 CENTREVILLE RD,HERNDON,"20171",https://florises.fcps.edu/,"7035612900","5",2023_24,6c5cb1a0-eff7-4383-b9e9-677e986cc192,2023/10/15 05:02:31.391+00,FairfaxCounty,2023/10/15 05:02:31.391+00,FairfaxCounty
-77.1554261516233,38.9186463420948,"4705",CHESTERBROOK,ES,Elementary School,K-6,1753 KIRBY RD,MCLEAN,"22101",https://chesterbrookes.fcps.edu/,"7037148200","2",2023_24,57c1bcd0-fd71-430b-910f-9d99dc4122e4,2023/10/15 05:02:31.391+00,FairfaxCounty,2023/10/15 05:02:31.391+00,FairfaxCounty
-77.1753473851181,38.9214337466257,"4706",KENT GARDENS,ES,Elementary School,K-6,1717 MELBOURNE DR,MCLEAN,"22101",https://kentgardenses.fcps.edu/,"7033945600","2",2023_24,b8571ff9-101b-44d1-bc3a-b2209ab6d2e1,2023/10/15 05:02:31.391+00,FairfaxCounty,2023/10/15 05:02:31.391+00,FairfaxCounty
-77.2922299346547,39.0015003228284,"4707",GREAT FALLS,ES,Elementary School,K-6,701 WALKER RD,GREAT FALLS,"22066",https://greatfallses.fcps.edu/,"7037572100","1",2023_24,3baf765e-0b86-4145-a62e-846ef68b623d,2023/10/15 05:02:31.391+00,FairfaxCounty,2023/10/15 05:02:31.391+00,FairfaxCounty
-77.3283013375431,38.9935707661698,"4708",FORESTVILLE,ES,Elementary School,K-6,1085 UTTERBACK STORE RD,GREAT FALLS,"22066",https://forestvillees.fcps.edu/,"7034046000","1",2023_24,9c640f43-5cc5-43d3-9577-69d02d28d85b,2023/10/15 05:02:31.391+00,FairfaxCounty,2023/10/15 05:02:31.391+00,FairfaxCounty
-77.3872712723171,38.9964554189877,"4709",DRANESVILLE,ES,Elementary School,K-6,1515 POWELLS TAVERN PL,HERNDON,"20170",https://dranesvillees.fcps.edu/,"7033265200","1",2023_24,d954a3c1-f3fb-42d2-a117-1afc95c8d65a,2023/10/15 05:02:31.391+00,FairfaxCounty,2023/10/15 05:02:31.391+00,FairfaxCounty
-77.3379650653327,38.9797555253497,"4710",ALDRIN,ES,Elementary School,K-6,11375 CENTER HARBOR RD,RESTON,"20194",https://aldrines.fcps.edu/,"7039043800","1",2023_24,e06e977e-25d3-44cf-94bb-76d648de11c2,2023/10/15 05:02:31.391+00,FairfaxCounty,2023/10/15 05:02:31.391+00,FairfaxCounty
-77.3583447166987,38.9802097311778,"4711",ARMSTRONG,ES,Elementary School,K-6,11900 LAKE NEWPORT RD,RESTON,"20194",https://armstronges.fcps.edu/,"7033754800","1",2023_24,8b697de8-7efa-410a-9a49-ab9ef00ecfd7,2023/10/15 05:02:31.391+00,FairfaxCounty,2023/10/15 05:02:31.391+00,FairfaxCounty
-77.1952227458579,38.9039695452768,"4712",LEMON ROAD,ES,Elementary School,K-6,7230 IDYLWOOD RD,FALLS CHURCH,"22043",https://lemonroades.fcps.edu/,"7037146400","2",2023_24,efc980c0-570d-49e4-bfe3-14af7636759e,2023/10/15 05:02:31.391+00,FairfaxCounty,2023/10/15 05:02:31.391+00,FairfaxCounty
-77.2296010986564,38.9113289079096,"4713",FREEDOM HILL,ES,Elementary School,K-6,1945 LORD FAIRFAX RD,VIENNA,"22182",https://freedomhilles.fcps.edu/,"7035067800","5",2023_24,784c3d0d-465e-4c84-8e44-4a001a5e5973,2023/10/15 05:02:31.391+00,FairfaxCounty,2023/10/15 05:02:31.391+00,FairfaxCounty
-77.4088374943327,38.9131104564052,"4714",OAK HILL,ES,Elementary School,K-6,3210 KINROSS CIR,HERNDON,"20171",https://oakhilles.fcps.edu/,"7034673500","5",2023_24,b7e5432c-3aa7-4262-95ae-bd1905fa9a67,2023/10/15 05:02:31.391+00,FairfaxCounty,2023/10/15 05:02:31.391+00,FairfaxCounty
-77.3767863516461,38.9759213821679,"4715",HERNDON,ES,Elementary School,K-6,630 DRANESVILLE RD,HERNDON,"20170",https://herndones.fcps.edu/,"7033263100","1",2023_24,9d2f282a-7c2a-42c2-93cd-11dc79f0e98e,2023/10/15 05:02:31.391+00,FairfaxCounty,2023/10/15 05:02:31.391+00,FairfaxCounty
-77.391213163611,38.9837001653079,"4716",CLEARVIEW,ES,Elementary School,K-6,12635 BUILDERS RD,HERNDON,"20170",https://clearviewes.fcps.edu/,"7037086000","1",2023_24,ce80b4ea-8e61-4eed-8c7a-00956c65b54e,2023/10/15 05:02:31.391+00,FairfaxCounty,2023/10/15 05:02:31.391+00,FairfaxCounty
-77.3295499137997,38.9688521611073,"4717",FOREST EDGE,ES,Elementary School,K-6,1501 BECONTREE LN,RESTON,"20190",https://forestedgees.fcps.edu/,"7039258000","1",2023_24,c41648cf-bc38-4147-a2f3-44c812724905,2023/10/15 05:02:31.391+00,FairfaxCounty,2023/10/15 05:02:31.391+00,FairfaxCounty
-77.406913768588,38.9612876003889,"4718",HUTCHISON,ES,Elementary School,K-6,13209 PARCHER AVE,HERNDON,"20170",https://hutchisones.fcps.edu/,"7039258300","1",2023_24,b7f7f749-7950-4e02-9863-f8e464294308,2023/10/15 05:02:31.391+00,FairfaxCounty,2023/10/15 05:02:31.391+00,FairfaxCounty
-77.1834348889469,38.8626578833917,"4719",WESTLAWN,ES,Elementary School,K-6,3200 WESTLEY RD,FALLS CHURCH,"22042",https://westlawnes.fcps.edu/,"7032415100","2",2023_24,b3193dcc-ae23-47d0-bb4c-ae6dcd9e8c32,2023/10/15 05:02:31.391+00,FairfaxCounty,2023/10/15 05:02:31.391+00,FairfaxCounty
-77.2087490345637,38.870716215019,"4720",PINE SPRING,ES,Elementary School,K-6,7607 WILLOW LN,FALLS CHURCH,"22042",https://pinespringes.fcps.edu/,"5712264400","2",2023_24,ad00571e-9c0d-4425-ad2e-fca82e9f026a,2023/10/15 05:02:31.391+00,FairfaxCounty,2023/10/15 05:02:31.391+00,FairfaxCounty
-77.2479493025868,38.8697789683497,"4721",FAIRHILL,ES,Elementary School,K-6,3001 CHICHESTER LN,FAIRFAX,"22031",https://fairhilles.fcps.edu/,"7032088100","2",2023_24,7740cc7d-110e-48c6-a93e-72d48469601e,2023/10/15 05:02:31.391+00,FairfaxCounty,2023/10/15 05:02:31.391+00,FairfaxCounty
-77.2779608994305,38.8985457569566,"4722",LOUISE ARCHER,ES,Elementary School,K-6,324 NUTLEY ST NW,VIENNA,"22180",https://archeres.fcps.edu/,"7039376200","1",2023_24,6fdd1eea-3ab3-40b2-b569-d400ddcb2c4f,2023/10/15 05:02:31.391+00,FairfaxCounty,2023/10/15 05:02:31.391+00,FairfaxCounty
-77.3789088629837,38.8892540838116,"4723",NAVY,ES,Elementary School,K-6,3500 WEST OX RD,FAIRFAX,"22033",https://navyes.fcps.edu/,"7032627100","1",2023_24,e7ed5375-f0b4-4e81-9064-48f2e8a7dace,2023/10/15 05:02:31.391+00,FairfaxCounty,2023/10/15 05:02:31.391+00,FairfaxCounty
-77.4110162097047,38.890364081516,"4724",LEES CORNER,ES,Elementary School,K-6,13500 HOLLINGER AVE,FAIRFAX,"22033",https://leescorneres.fcps.edu/,"7032273500","5",2023_24,ab94e562-7a4a-4c52-b7b8-aba3ad302b00,2023/10/15 05:02:31.391+00,FairfaxCounty,2023/10/15 05:02:31.391+00,FairfaxCounty
-77.2059161748796,38.8887827328706,"4725",SHREVEWOOD,ES,Elementary School,K-6,7525 SHREVE RD,FALLS CHURCH,"22043",https://shrevewoodes.fcps.edu/,"7036456600","5",2023_24,1cb4d688-285e-4391-bd55-18e06f68a5d9,2023/10/15 05:02:31.391+00,FairfaxCounty,2023/10/15 05:02:31.391+00,FairfaxCounty
-77.1979459190636,38.8797692947546,"4726",TIMBER LANE,ES,Elementary School,K-6,2737 WEST ST,FALLS CHURCH,"22046",https://timberlanees.fcps.edu/,"7032065300","2",2023_24,1fc46167-bdce-45c9-a8cf-fb8506121b3f,2023/10/15 05:02:31.391+00,FairfaxCounty,2023/10/15 05:02:31.391+00,FairfaxCounty
-77.1908090839099,38.8765411656249,"4727",GRAHAM ROAD,ES,Elementary School,K-6,2831 GRAHAM RD,FALLS CHURCH,"22042",https://grahamroades.fcps.edu/,"5712262700","2",2023_24,a13503f3-a4ad-4290-84b2-3a58e97a2a7e,2023/10/15 05:02:31.391+00,FairfaxCounty,2023/10/15 05:02:31.391+00,FairfaxCounty
-77.22950319053,38.8846924140451,"4728",STENWOOD,ES,Elementary School,K-6,2620 GALLOWS RD,VIENNA,"22180",https://stenwoodes.fcps.edu/,"7032087600","5",2023_24,576df494-195b-4909-af0d-82892837c887,2023/10/15 05:02:31.391+00,FairfaxCounty,2023/10/15 05:02:31.391+00,FairfaxCounty
-77.245618866707,38.9211266661727,"4729",WESTBRIAR,ES,Elementary School,K-6,1741 PINE VALLEY DR,VIENNA,"22182",https://westbriares.fcps.edu/,"7039371700","5",2023_24,a3470d3b-d0cc-48d6-9ae4-4a9da4d1b1c5,2023/10/15 05:02:31.391+00,FairfaxCounty,2023/10/15 05:02:31.391+00,FairfaxCounty
-77.2665351173363,38.9176458687567,"4730",WOLFTRAP,ES,Elementary School,K-6,1903 BEULAH RD,VIENNA,"22182",https://wolftrapes.fcps.edu/,"7033197300","1",2023_24,b348d072-4e8e-4df9-bc48-01a42647ba56,2023/10/15 05:02:31.391+00,FairfaxCounty,2023/10/15 05:02:31.391+00,FairfaxCounty
-77.3822713015142,38.9280364878524,"4731",FOX MILL,ES,Elementary School,K-6,2611 VIKING DR,HERNDON,"20171",https://foxmilles.fcps.edu/,"7032622700","1",2023_24,9441cb51-e8f8-42fe-8b2c-7ffcda053d33,2023/10/15 05:02:31.391+00,FairfaxCounty,2023/10/15 05:02:31.391+00,FairfaxCounty
-77.1655272340129,38.8198138640294,"4732",WEYANOKE,ES,Elementary School,K-5,6520 BRADDOCK RD,ALEXANDRIA,"22312",https://weyanokees.fcps.edu/,"7038135400","6",2023_24,fbdb099c-c03f-4ea4-9497-8dc7146b7afc,2023/10/15 05:02:31.391+00,FairfaxCounty,2023/10/15 05:02:31.391+00,FairfaxCounty
-77.1761793851913,38.8291678206038,"4733",COLUMBIA,ES,Elementary School,K-6,6720 ALPINE DR,ANNANDALE,"22003",https://columbiaes.fcps.edu/,"7039162500","6",2023_24,578495bf-0363-45e8-a4f9-f173dddeb06b,2023/10/15 05:02:31.391+00,FairfaxCounty,2023/10/15 05:02:31.391+00,FairfaxCounty
-77.2081972310586,38.8272352638585,"4734",ANNANDALE TERRACE,ES,Elementary School,K-5,7604 HERALD ST,ANNANDALE,"22003",https://annandaleterracees.fcps.edu/,"7036585600","6",2023_24,f2de3849-3ee2-43eb-a2d4-2d4cf364c3f1,2023/10/15 05:02:31.391+00,FairfaxCounty,2023/10/15 05:02:31.391+00,FairfaxCounty
-77.2155401393758,38.8222723610177,"4735",BRADDOCK,ES,Elementary School,K-5,7825 HERITAGE DR,ANNANDALE,"22003",https://braddockes.fcps.edu/,"7039147300","6",2023_24,e08aa177-d144-45d2-acf1-dc57b217b6a5,2023/10/15 05:02:31.391+00,FairfaxCounty,2023/10/15 05:02:31.391+00,FairfaxCounty
-77.266594220252,38.8261800931219,"4736",LITTLE RUN,ES,Elementary School,K-6,4511 OLLEY LN,FAIRFAX,"22032",https://littlerunes.fcps.edu/,"7035033500","5",2023_24,76514e08-f474-4c80-af4d-9355c92b0f5f,2023/10/15 05:02:31.391+00,FairfaxCounty,2023/10/15 05:02:31.391+00,FairfaxCounty
-77.2766257767928,38.8311746260033,"4737",OLDE CREEK,ES,Elementary School,K-6,9524 OLD CREEK DR,FAIRFAX,"22032",https://oldecreekes.fcps.edu/,"7034263100","5",2023_24,da4ac4d5-8483-496b-a341-b11bf121350c,2023/10/15 05:02:31.391+00,FairfaxCounty,2023/10/15 05:02:31.391+00,FairfaxCounty
-77.3798908314032,38.8318825860783,"4738",WILLOW SPRINGS,ES,Elementary School,K-6,5400 WILLOW SPRINGS SCHOOL RD,FAIRFAX,"22030",https://willowspringses.fcps.edu/,"7036796000","5",2023_24,5d5b9ae3-2d11-4d87-9739-ca49fdaf7895,2023/10/15 05:02:31.391+00,FairfaxCounty,2023/10/15 05:02:31.391+00,FairfaxCounty
-77.4176313791446,38.8204380517095,"4739",UNION MILL,ES,Elementary School,K-6,13611 SPRINGSTONE DR,CLIFTON,"20124",https://unionmilles.fcps.edu/,"7033228500","4",2023_24,4d17d1a0-e2dd-4a7e-b869-0d9717403060,2023/10/15 05:02:31.391+00,FairfaxCounty,2023/10/15 05:02:31.391+00,FairfaxCounty
-77.4406491760593,38.8196625886711,"4740",CENTREVILLE,ES,Elementary School,K-6,14330 GREEN TRAILS BLVD,CENTREVILLE,"20121",https://centrevillees.fcps.edu/,"7035023500","4",2023_24,0d8d7aef-8f77-4c36-abc8-a9d94dc6ad93,2023/10/15 05:02:31.391+00,FairfaxCounty,2023/10/15 05:02:31.391+00,FairfaxCounty
-77.4455671349294,38.8257935722041,"4741",CENTRE RIDGE,ES,Elementary School,K-6,14400 NEW BRADDOCK RD,CENTREVILLE,"20121",https://centreridgees.fcps.edu/,"7032272600","4",2023_24,e8710ad7-7eb4-496c-b817-4a2f5f35fc62,2023/10/15 05:02:31.391+00,FairfaxCounty,2023/10/15 05:02:31.391+00,FairfaxCounty
-77.4755281043991,38.8286628480282,"4742",BULL RUN,ES,Elementary School,K-6,15301 ROUTE 29,CENTREVILLE,"20121",https://bullrunes.fcps.edu/,"7032271400","4",2023_24,a87094bc-c674-4c87-831d-fd9c68d6eee0,2023/10/15 05:02:31.391+00,FairfaxCounty,2023/10/15 05:02:31.391+00,FairfaxCounty
-77.2860743768372,38.8698952123818,"4743",MOSAIC,ES,Elementary School,K-6,9819 FIVE OAKS RD,FAIRFAX,"22031",https://mosaices.fcps.edu/,"7039371600","1",2023_24,d4beddb4-9e94-48b7-a285-a9a2401068c9,2023/10/15 05:02:31.391+00,FairfaxCounty,2023/10/15 05:02:31.391+00,FairfaxCounty
-77.3256731074341,38.8640647091704,"4744",PROVIDENCE,ES,Elementary School,K-6,3616 JERMANTOWN RD,FAIRFAX,"22030",https://providencees.fcps.edu/,"7034604400","5",2023_24,e246c217-f557-4959-9761-e08619b0fe3c,2023/10/15 05:02:31.391+00,FairfaxCounty,2023/10/15 05:02:31.391+00,FairfaxCounty
-77.3943925780714,38.8714213558314,"4745",GREENBRIAR EAST,ES,Elementary School,K-6,13006 POINT PLEASANT DR,FAIRFAX,"22033",https://greenbriareastes.fcps.edu/,"7036336400","5",2023_24,cc5a6205-73ae-4eb5-91df-47f487ce10a9,2023/10/15 05:02:31.391+00,FairfaxCounty,2023/10/15 05:02:31.391+00,FairfaxCounty
-77.4148263406067,38.8627653300567,"4746",POPLAR TREE,ES,Elementary School,K-6,13440 MELVILLE LN,CHANTILLY,"20151",https://poplartreees.fcps.edu/,"7036337400","5",2023_24,68ab6512-d33f-40b3-8600-c60a43b00151,2023/10/15 05:02:31.391+00,FairfaxCounty,2023/10/15 05:02:31.391+00,FairfaxCounty
-77.458516850243,38.865718117931,"4747",CUB RUN,ES,Elementary School,K-6,5301 SULLY STATION DR,CENTREVILLE,"20120",https://cubrunes.fcps.edu/,"7036337500","5",2023_24,12eff23e-0f62-40e2-bc1e-d94a1f11c853,2023/10/15 05:02:31.391+00,FairfaxCounty,2023/10/15 05:02:31.391+00,FairfaxCounty
-77.1810854635538,38.8529465798977,"4748",BEECH TREE,ES,Elementary School,K-5,3401 BEECHTREE LN,FALLS CHURCH,"22042",https://beechtreees.fcps.edu/,"7035312600","2",2023_24,c9c6c2c4-542d-4756-a880-909e7915dddc,2023/10/15 05:02:31.391+00,FairfaxCounty,2023/10/15 05:02:31.391+00,FairfaxCounty
-77.1687061425379,38.8558013991018,"4749",SLEEPY HOLLOW,ES,Elementary School,K-5,3333 SLEEPY HOLLOW RD,FALLS CHURCH,"22044",https://sleepyhollowes.fcps.edu/,"7032377000","2",2023_24,50ad7cd6-9efd-43d6-b299-e4df98c829e3,2023/10/15 05:02:31.391+00,FairfaxCounty,2023/10/15 05:02:31.391+00,FairfaxCounty
-77.2500817343457,38.8922970209941,"4750",CUNNINGHAM PARK,ES,Elementary School,K-6,1001 PARK ST SE,VIENNA,"22180",https://cunninghamparkes.fcps.edu/,"7032555600","1",2023_24,aed194c4-9b50-4317-8c1d-4d94e159ef17,2023/10/15 05:02:31.391+00,FairfaxCounty,2023/10/15 05:02:31.391+00,FairfaxCounty
-77.2632673206305,38.9011463802941,"4751",VIENNA,ES,Elementary School,K-6,128 CENTER ST S,VIENNA,"22180",https://viennaes.fcps.edu/,"7039376000","1",2023_24,afbb580e-4943-4e9e-b731-2e1b6a307a09,2023/10/15 05:02:31.391+00,FairfaxCounty,2023/10/15 05:02:31.391+00,FairfaxCounty
-77.2847705160474,38.8960755623051,"4752",FLINT HILL,ES,Elementary School,K-6,2444 FLINT HILL RD,VIENNA,"22181",https://flinthilles.fcps.edu/,"7032426100","1",2023_24,294765b2-fd1b-4329-a6f1-ce089a77bc61,2023/10/15 05:02:31.391+00,FairfaxCounty,2023/10/15 05:02:31.391+00,FairfaxCounty
-77.2666276232685,38.8822635900049,"4753",MARSHALL ROAD,ES,Elementary School,K-6,730 MARSHALL RD SW,VIENNA,"22180",https://marshallroades.fcps.edu/,"7039371500","1",2023_24,6027ae05-8aaa-42af-8b9d-0425ff7578e6,2023/10/15 05:02:31.391+00,FairfaxCounty,2023/10/15 05:02:31.391+00,FairfaxCounty
-77.3042827951774,38.8801879942633,"4754",OAKTON,ES,Elementary School,K-6,3000 CHAIN BRIDGE RD,OAKTON,"22124",https://oaktones.fcps.edu/,"7039376100","1",2023_24,e3321f6b-f5e3-4a73-bc7e-b344dcb2add9,2023/10/15 05:02:31.391+00,FairfaxCounty,2023/10/15 05:02:31.391+00,FairfaxCounty
-77.3447841865136,38.8763830528777,"4755",WAPLES MILL,ES,Elementary School,K-6,11509 WAPLES MILL RD,OAKTON,"22124",https://waplesmilles.fcps.edu/,"7033907700","1",2023_24,3782da71-56c2-4d88-8e67-b37f0efe8036,2023/10/15 05:02:31.391+00,FairfaxCounty,2023/10/15 05:02:31.391+00,FairfaxCounty
-77.4056521160396,38.8763379980207,"4756",GREENBRIAR WEST,ES,Elementary School,K-6,13300 POPLAR TREE RD,FAIRFAX,"22033",https://greenbriarwestes.fcps.edu/,"7036336700","5",2023_24,e0f97d74-1dad-4ec0-954a-fa50a69cc529,2023/10/15 05:02:31.391+00,FairfaxCounty,2023/10/15 05:02:31.391+00,FairfaxCounty
-77.4192737195324,38.8823971792513,"4757",BROOKFIELD,ES,Elementary School,K-6,4200 LEES CORNER RD,CHANTILLY,"20151",https://brookfieldes.fcps.edu/,"7038148700","5",2023_24,8feb310f-334f-4fe7-8774-ea624282d05c,2023/10/15 05:02:31.391+00,FairfaxCounty,2023/10/15 05:02:31.391+00,FairfaxCounty
-77.32354098373,38.8399871001375,"4758",FAIRFAX VILLA,ES,Elementary School,K-6,10900 SANTA CLARA DR,FAIRFAX,"22030",https://fairfaxvillaes.fcps.edu/,"7032672800","5",2023_24,cc6f1371-577d-4750-a6d3-599ee79cecea,2023/10/15 05:02:31.391+00,FairfaxCounty,2023/10/15 05:02:31.391+00,FairfaxCounty
-77.4079905346286,38.8461483842305,"4759",POWELL,ES,Elementary School,K-6,13340 LELAND RD,CENTREVILLE,"20120",https://powelles.fcps.edu/,"5715226000","4",2023_24,f3c95eb9-9f3a-428d-9c34-36670b14ef2e,2023/10/15 05:02:31.391+00,FairfaxCounty,2023/10/15 05:02:31.391+00,FairfaxCounty
-77.3097518147785,38.8040757644683,"4760",BONNIE BRAE,ES,Elementary School,K-6,5420 SIDEBURN RD,FAIRFAX,"22032",https://bonniebraees.fcps.edu/,"7033213900","4",2023_24,3efbb1c3-2ba7-47d1-8579-b7c86a0b7cb4,2023/10/15 05:02:31.391+00,FairfaxCounty,2023/10/15 05:02:31.391+00,FairfaxCounty
-77.3245645278673,38.7976861500472,"4761",FAIRVIEW,ES,Elementary School,K-6,5815 OX RD,FAIRFAX STATION,"22039",https://fairviewes.fcps.edu/,"7035033700","4",2023_24,123c3b5c-cd05-4d27-bf31-2faaa7563f32,2023/10/15 05:02:31.391+00,FairfaxCounty,2023/10/15 05:02:31.391+00,FairfaxCounty
-77.0795897487312,38.7850946437202,"4762",MOUNT EAGLE,ES,Elementary School,K-6,6116 N KINGS HWY,ALEXANDRIA,"22303",https://mounteaglees.fcps.edu/,"7037212100","3",2023_24,6704a115-47cb-4a02-8e85-8dc4e41f354d,2023/10/15 05:02:31.391+00,FairfaxCounty,2023/10/15 05:02:31.391+00,FairfaxCounty
-77.1173526164727,38.781910709642,"4763",ROSE HILL,ES,Elementary School,K-6,6301 ROSE HILL DR,ALEXANDRIA,"22310",https://rosehilles.fcps.edu/,"7033134200","3",2023_24,c0aab9ac-24c7-417c-938c-9503abe8ffb4,2023/10/15 05:02:31.391+00,FairfaxCounty,2023/10/15 05:02:31.391+00,FairfaxCounty
-77.2980171190847,38.7854752846626,"4764",TERRA CENTRE,ES,Elementary School,K-6,6000 BURKE CENTRE PKWY,BURKE,"22015",https://terracentrees.fcps.edu/,"7032491400","4",2023_24,f462d97d-f783-4ca8-aa30-f97546a36054,2023/10/15 05:02:31.391+00,FairfaxCounty,2023/10/15 05:02:31.391+00,FairfaxCounty
-77.0610355045928,38.7719600280004,"4765",BELLE VIEW,ES,Elementary School,K-6,6701 FORT HUNT RD,ALEXANDRIA,"22307",https://belleviewes.fcps.edu/,"7036608300","3",2023_24,7ca33dfe-0ee3-449e-aca3-6e43306bde6b,2023/10/15 05:02:31.391+00,FairfaxCounty,2023/10/15 05:02:31.391+00,FairfaxCounty
-77.0740440630726,38.7665852374086,"4766",BUCKNELL,ES,Elementary School,K-6,6925 UNIVERSITY DR,ALEXANDRIA,"22307",https://bucknelles.fcps.edu/,"7036602900","3",2023_24,8011a5db-797e-432f-a109-72e3fc330a92,2023/10/15 05:02:31.391+00,FairfaxCounty,2023/10/15 05:02:31.391+00,FairfaxCounty
-77.0949745459911,38.7688053564729,"4767",GROVETON,ES,Elementary School,K-6,6900 HARRISON LN,ALEXANDRIA,"22306",https://grovetones.fcps.edu/,"7037188000","3",2023_24,de1e07fc-c2e3-4c43-bfb2-832ad7534d3d,2023/10/15 05:02:31.391+00,FairfaxCounty,2023/10/15 05:02:31.391+00,FairfaxCounty
-77.1695841516509,38.776250456235,"4768",FORESTDALE,ES,Elementary School,K-6,6530 ELDER AVE,SPRINGFIELD,"22150",https://forestdalees.fcps.edu/,"7033134300","6",2023_24,9a7a7e46-75b5-4293-b7be-106f01cdcc82,2023/10/15 05:02:31.391+00,FairfaxCounty,2023/10/15 05:02:31.391+00,FairfaxCounty
-77.1899309303035,38.777518803775,"4769",GARFIELD,ES,Elementary School,K-6,7101 OLD KEENE MILL RD,SPRINGFIELD,"22150",https://garfieldes.fcps.edu/,"7039232900","6",2023_24,4fbaf494-c4cb-4412-9d69-c7623a5e8162,2023/10/15 05:02:31.391+00,FairfaxCounty,2023/10/15 05:02:31.391+00,FairfaxCounty
-77.2192544078076,38.7692373308107,"4770",WEST SPRINGFIELD,ES,Elementary School,K-6,6802 DELAND DR,SPRINGFIELD,"22152",https://westspringfieldes.fcps.edu/,"7039133800","4",2023_24,61a777ac-0dcb-4b7c-b38b-d83b7a01464e,2023/10/15 05:02:31.391+00,FairfaxCounty,2023/10/15 05:02:31.391+00,FairfaxCounty
-77.2314250085432,38.7689225000695,"4771",ROLLING VALLEY,ES,Elementary School,K-6,6703 BARNACK DR,SPRINGFIELD,"22152",https://rollingvalleyes.fcps.edu/,"7039232700","4",2023_24,6afb4dfe-a32f-41e3-a99c-131eff94a552,2023/10/15 05:02:31.391+00,FairfaxCounty,2023/10/15 05:02:31.391+00,FairfaxCounty
-77.2554551633396,38.7658720302068,"4772",ORANGE HUNT,ES,Elementary School,K-6,6820 SYDENSTRICKER RD,SPRINGFIELD,"22152",https://orangehuntes.fcps.edu/,"7039136800","4",2023_24,a72eb4b7-ca8b-452a-b629-83ecc1f3ec4f,2023/10/15 05:02:31.391+00,FairfaxCounty,2023/10/15 05:02:31.391+00,FairfaxCounty
-77.2844195754903,38.7680679771144,"4773",CHERRY RUN,ES,Elementary School,K-6,9732 IRONMASTER DR,BURKE,"22015",https://cherryrunes.fcps.edu/,"7039232800","4",2023_24,3c4af8d7-288b-4ee8-9b8a-f81ca179dd6d,2023/10/15 05:02:31.391+00,FairfaxCounty,2023/10/15 05:02:31.391+00,FairfaxCounty
-77.0716923842511,38.7504813943802,"4774",HOLLIN MEADOWS,ES,Elementary School,K-6,2310 NORDOK PL,ALEXANDRIA,"22306",https://hollinmeadowses.fcps.edu/,"7037188300","3",2023_24,2fecffc3-8788-4884-bea9-1163958173d5,2023/10/15 05:02:31.391+00,FairfaxCounty,2023/10/15 05:02:31.391+00,FairfaxCounty
-77.0896351932218,38.7589869969539,"4775",HYBLA VALLEY,ES,Elementary School,K-6,3415 LOCKHEED BLVD,ALEXANDRIA,"22306",https://hyblavalleyes.fcps.edu/,"7037187000","3",2023_24,00cd1529-e303-4805-976e-cb13560aec61,2023/10/15 05:02:31.391+00,FairfaxCounty,2023/10/15 05:02:31.391+00,FairfaxCounty
-77.1573343214641,38.7610805923798,"4776",LANE,ES,Elementary School,K-6,7137 BEULAH ST,ALEXANDRIA,"22315",https://lanees.fcps.edu/,"7039247700","6",2023_24,222cd6f3-fe90-4852-b47f-c3c82df93429,2023/10/15 05:02:31.391+00,FairfaxCounty,2023/10/15 05:02:31.391+00,FairfaxCounty
-77.243665928003,38.7620940366246,"4777",HUNT VALLEY,ES,Elementary School,K-6,7107 SYDENSTRICKER RD,SPRINGFIELD,"22152",https://huntvalleyes.fcps.edu/,"7039138800","4",2023_24,22c13c75-449a-4880-ac72-7862bf513877,2023/10/15 05:02:31.391+00,FairfaxCounty,2023/10/15 05:02:31.391+00,FairfaxCounty
-77.2724819492676,38.7551638836514,"4778",SANGSTER,ES,Elementary School,K-6,7420 RESERVATION DR,SPRINGFIELD,"22153",https://sangsteres.fcps.edu/,"7036448200","4",2023_24,fa3ff741-d5e9-4ff4-adfb-5c78a2b4cde4,2023/10/15 05:02:31.391+00,FairfaxCounty,2023/10/15 05:02:31.391+00,FairfaxCounty
-77.2958537922949,38.8140378605603,"4779",LAUREL RIDGE,ES,Elementary School,K-6,10110 COMMONWEALTH BLVD,FAIRFAX,"22032",https://laurelridgees.fcps.edu/,"7034263700","4",2023_24,f8f9f29c-ee88-4026-b671-df5fee33ea30,2023/10/15 05:02:31.391+00,FairfaxCounty,2023/10/15 05:02:31.391+00,FairfaxCounty
-77.3098417196667,38.8188424476963,"4780",OAK VIEW,ES,Elementary School,K-6,5004 SIDEBURN RD,FAIRFAX,"22032",https://oakviewes.fcps.edu/,"7037647100","4",2023_24,5fe80aed-e989-436a-9e09-744039d689d6,2023/10/15 05:02:31.391+00,FairfaxCounty,2023/10/15 05:02:31.391+00,FairfaxCounty
-77.0913673282394,38.8001846129136,"4781",CAMERON,ES,Elementary School,K-6,3434 CAMPBELL DR,ALEXANDRIA,"22303",https://camerones.fcps.edu/,"7033292100","3",2023_24,6db63cf0-e56c-47a7-81c0-9e5565e677d4,2023/10/15 05:02:31.391+00,FairfaxCounty,2023/10/15 05:02:31.391+00,FairfaxCounty
-77.1111908404522,38.7948868521658,"4782",CLERMONT,ES,Elementary School,K-6,5720 CLERMONT DR,ALEXANDRIA,"22310",https://clermontes.fcps.edu/,"7039212400","3",2023_24,4734c096-1b4e-43d7-8f08-d8132a09eb84,2023/10/15 05:02:31.391+00,FairfaxCounty,2023/10/15 05:02:31.391+00,FairfaxCounty
-77.185839774956,38.7921089796557,"4783",LYNBROOK,ES,Elementary School,K-6,5801 BACKLICK RD,SPRINGFIELD,"22150",https://lynbrookes.fcps.edu/,"7038662940","6",2023_24,8535881e-c782-4213-87df-69fe1c0fea7b,2023/10/15 05:02:31.391+00,FairfaxCounty,2023/10/15 05:02:31.391+00,FairfaxCounty
-77.2071622165314,38.801567213758,"4784",NORTH SPRINGFIELD,ES,Elementary School,K-5,7602 HEMING CT,SPRINGFIELD,"22151",https://northspringfieldes.fcps.edu/,"7036585500","6",2023_24,d39e038c-b36a-4345-85b2-d062084af141,2023/10/15 05:02:31.391+00,FairfaxCounty,2023/10/15 05:02:31.391+00,FairfaxCounty
-77.2250898916782,38.8482799204194,"4785",CAMELOT,ES,Elementary School,K-6,8100 GUINEVERE DR,ANNANDALE,"22003",https://camelotes.fcps.edu/,"7036457000","2",2023_24,7f35ce0d-b0a9-4c1e-a5f9-6d34fa8ccc30,2023/10/15 05:02:31.391+00,FairfaxCounty,2023/10/15 05:02:31.391+00,FairfaxCounty
-77.2137583202427,38.8519357614738,"4786",WOODBURN,ES,Elementary School,K-6,3401 HEMLOCK DR,FALLS CHURCH,"22042",https://woodburnes.fcps.edu/,"7036418200","2",2023_24,6df7e35c-ad3e-4b1b-95b5-a469b1b6e493,2023/10/15 05:02:31.391+00,FairfaxCounty,2023/10/15 05:02:31.391+00,FairfaxCounty
-77.2958347403414,38.8521327277344,"4787",DANIELS RUN,ES,Elementary School,K-6,3705 OLD LEE HWY,FAIRFAX,"22030",https://danielsrunes.fcps.edu/,"7032798400","5",2023_24,8853c3b2-1f2b-4d17-a7db-fdbaf7337ae8,2023/10/15 05:02:31.391+00,FairfaxCounty,2023/10/15 05:02:31.391+00,FairfaxCounty
-77.3628729153986,38.8514018649021,"4788",EAGLE VIEW,ES,Elementary School,K-6,4500 DIXIE HILL RD,FAIRFAX,"22030",https://eagleviewes.fcps.edu/,"7033223100","5",2023_24,3ec27978-5196-4da0-93df-de7c2c663094,2023/10/15 05:02:31.391+00,FairfaxCounty,2023/10/15 05:02:31.391+00,FairfaxCounty
-77.4710933906234,38.8558023306016,"4789",DEER PARK,ES,Elementary School,K-6,15109 CARLBERN DR,CENTREVILLE,"20120",https://deerparkes.fcps.edu/,"7038025000","5",2023_24,c8624aa4-0b1c-4693-ad91-2a512b59a713,2023/10/15 05:02:31.391+00,FairfaxCounty,2023/10/15 05:02:31.391+00,FairfaxCounty
-77.4857308918231,38.8520985147743,"4790",VIRGINIA RUN,ES,Elementary School,K-6,15450 MARTINS HUNDRED DR,CENTREVILLE,"20120",https://virginiarunes.fcps.edu/,"7039888900","5",2023_24,62c27f6b-fbe9-4aaa-92a2-6b08e3195f97,2023/10/15 05:02:31.391+00,FairfaxCounty,2023/10/15 05:02:31.391+00,FairfaxCounty
-77.1531240613751,38.8339254004581,"4791",PARKLAWN,ES,Elementary School,K-5,4116 BRADDOCK RD,ALEXANDRIA,"22312",https://parklawnes.fcps.edu/,"7039146900","2",2023_24,c93c70d8-65d0-40f9-8403-90d869a77684,2023/10/15 05:02:31.391+00,FairfaxCounty,2023/10/15 05:02:31.391+00,FairfaxCounty
-77.168884305536,38.8397556619603,"4792",BELVEDERE,ES,Elementary School,K-5,6540 COLUMBIA PIKE,FALLS CHURCH,"22041",https://belvederees.fcps.edu/,"7039166800","2",2023_24,db1673ca-3953-4beb-9962-08fcf058b0f9,2023/10/15 05:02:31.391+00,FairfaxCounty,2023/10/15 05:02:31.391+00,FairfaxCounty
-77.246651984474,38.8360558143389,"4793",WAKEFIELD FOREST,ES,Elementary School,K-6,4011 IVA LN,FAIRFAX,"22032",https://wakefieldforestes.fcps.edu/,"7035032300","5",2023_24,7474c3f8-985b-456c-9bd8-bf5595843d1f,2023/10/15 05:02:31.391+00,FairfaxCounty,2023/10/15 05:02:31.391+00,FairfaxCounty
-77.1640832439061,38.783975224381,"4794",SPRINGFIELDTATES,ES,Elementary School,K-6,6200 CHARLES C GOFF DR,SPRINGFIELD,"22150",https://springfieldestateses.fcps.edu/,"7039212300","6",2023_24,6619cddc-c0ab-4ff5-a4ed-520661e03213,2023/10/15 05:02:31.391+00,FairfaxCounty,2023/10/15 05:02:31.391+00,FairfaxCounty
-77.1949220290874,38.7873942565306,"4795",CRESTWOOD,ES,Elementary School,K-6,6010 HANOVER AVE,SPRINGFIELD,"22150",https://crestwoodes.fcps.edu/,"7039235400","6",2023_24,84e68257-d7f9-4b4a-8056-d382a0ac0579,2023/10/15 05:02:31.391+00,FairfaxCounty,2023/10/15 05:02:31.391+00,FairfaxCounty
-77.2215078385794,38.7811960439509,"4796",KEENE MILL,ES,Elementary School,K-6,6310 BARDU AVE,SPRINGFIELD,"22152",https://keenemilles.fcps.edu/,"7036444700","4",2023_24,74ede002-4141-445b-ba02-1c81bb14fd0e,2023/10/15 05:02:31.391+00,FairfaxCounty,2023/10/15 05:02:31.391+00,FairfaxCounty
-77.1453726021775,38.8521005146992,"4797",BAILEY'S,ES,Elementary School,K-2,6111 KNOLLWOOD DR,FALLS CHURCH,"22041",https://baileyses.fcps.edu/,"7035756800","2",2023_24,0e95dc27-5b63-46a1-a3b9-b700a02f34d8,2023/10/15 05:02:31.391+00,FairfaxCounty,2023/10/15 05:02:31.391+00,FairfaxCounty
-77.1285384779642,38.8557976106783,"4798",GLEN FOREST,ES,Elementary School,K-5,5829 GLEN FOREST DR,FALLS CHURCH,"22041",https://glenforestes.fcps.edu/,"7035788000","2",2023_24,3c2b76b9-d254-4d60-940c-a5c4e28eb9e9,2023/10/15 05:02:31.391+00,FairfaxCounty,2023/10/15 05:02:31.391+00,FairfaxCounty
-77.4564065517199,38.839836915392,"4799",LONDON TOWNE,ES,Elementary School,K-6,6100 STONE RD,CENTREVILLE,"20120",https://londontownees.fcps.edu/,"7032275400","5",2023_24,f232880f-0d1f-4d7a-bf2a-0157a3930613,2023/10/15 05:02:31.391+00,FairfaxCounty,2023/10/15 05:02:31.391+00,FairfaxCounty
-77.2497989127695,38.8207208730666,"4800",CANTERBURY WOODS,ES,Elementary School,K-6,4910 WILLET DR,ANNANDALE,"22003",https://canterburywoodses.fcps.edu/,"7037645600","5",2023_24,10e50ee2-403e-4640-bc7c-162b30129863,2023/10/15 05:02:31.391+00,FairfaxCounty,2023/10/15 05:02:31.391+00,FairfaxCounty
-77.1963934409234,38.8425538205774,"4801",MASON CREST,ES,Elementary School,K-5,3705 CREST DR,ANNANDALE,"22003",https://masoncrestes.fcps.edu/,"5712262600","2",2023_24,ed1e568b-a146-4387-bf95-a25212ce4768,2023/10/15 05:02:31.391+00,FairfaxCounty,2023/10/15 05:02:31.391+00,FairfaxCounty
-77.0559968093543,38.7247797216038,"4802",WAYNEWOOD,ES,Elementary School,K-6,1205 WAYNEWOOD BLVD,ALEXANDRIA,"22308",https://waynewoodes.fcps.edu/,"7037047100","3",2023_24,22268859-d2c3-4c35-87c6-aaf2763a5669,2023/10/15 05:02:31.391+00,FairfaxCounty,2023/10/15 05:02:31.391+00,FairfaxCounty
-77.0687708263377,38.7281192368692,"4803",STRATFORD LANDING,ES,Elementary School,K-6,8484 RIVERSIDE RD,ALEXANDRIA,"22308",https://stratfordlandinges.fcps.edu/,"7036193600","3",2023_24,b796f83a-b695-4ca5-b9e3-c9f0ee42529d,2023/10/15 05:02:31.391+00,FairfaxCounty,2023/10/15 05:02:31.391+00,FairfaxCounty
-77.1178669899195,38.7265305614674,"4804",WOODLAWN,ES,Elementary School,K-6,8505 HIGHLAND LN,ALEXANDRIA,"22309",https://woodlawnes.fcps.edu/,"7036194800","3",2023_24,dea3edd5-03ad-4a32-96dd-ab15fcad412f,2023/10/15 05:02:31.391+00,FairfaxCounty,2023/10/15 05:02:31.391+00,FairfaxCounty
-77.2047619270355,38.919182543307,"4805",WESTGATE,ES,Elementary School,K-6,7500 MAGARITY RD,FALLS CHURCH,"22043",https://westgatees.fcps.edu/,"7036105700","5",2023_24,cddb57ae-25d0-4378-b8ee-134e38b79ae7,2023/10/15 05:02:31.391+00,FairfaxCounty,2023/10/15 05:02:31.391+00,FairfaxCounty
-77.1681702326329,38.7455476875307,"4806",ISLAND CREEK,ES,Elementary School,K-6,7855 MORNING VIEW LN,ALEXANDRIA,"22315",https://islandcreekes.fcps.edu/,"5716426300","6",2023_24,afc51cff-83b8-4ba2-86d8-9d7eda476819,2023/10/15 05:02:31.391+00,FairfaxCounty,2023/10/15 05:02:31.391+00,FairfaxCounty
-77.2137328819796,38.7357628155791,"4807",SARATOGA,ES,Elementary School,K-6,8111 NORTHUMBERLAND RD,SPRINGFIELD,"22153",https://saratogaes.fcps.edu/,"7034402600","6",2023_24,05ad3fb7-1810-4e2e-ae42-3599c337e26d,2023/10/15 05:02:31.391+00,FairfaxCounty,2023/10/15 05:02:31.391+00,FairfaxCounty
-77.2690688380328,38.7289592814202,"4808",SILVERBROOK,ES,Elementary School,K-6,9350 CROSSPOINTE DR,FAIRFAX STATION,"22039",https://silverbrookes.fcps.edu/,"7036905100","4",2023_24,fc446a33-615c-4fa8-b4ce-ab02bda55e85,2023/10/15 05:02:31.391+00,FairfaxCounty,2023/10/15 05:02:31.391+00,FairfaxCounty
-77.0664435303604,38.7189731746819,"4809",FORT HUNT,ES,Elementary School,K-6,8832 LINTON LN,ALEXANDRIA,"22308",https://forthuntes.fcps.edu/,"7036192600","3",2023_24,c2d29e25-471e-4ff4-83f8-1c0d3e4ef9df,2023/10/15 05:02:31.391+00,FairfaxCounty,2023/10/15 05:02:31.391+00,FairfaxCounty
-77.0964455641357,38.720289817556,"4810",WOODLEY HILLS,ES,Elementary School,K-6,8718 OLD MT VERNON RD,ALEXANDRIA,"22309",https://woodleyhillses.fcps.edu/,"7037992000","3",2023_24,ef559288-7ba7-400d-9555-314267473b95,2023/10/15 05:02:31.391+00,FairfaxCounty,2023/10/15 05:02:31.391+00,FairfaxCounty
-77.1045266736449,38.7099830081405,"4811",WASHINGTON MILL,ES,Elementary School,K-6,9100 CHERRYTREE DR,ALEXANDRIA,"22309",https://washingtonmilles.fcps.edu/,"7036192500","3",2023_24,44f60888-e3bc-4a49-b497-f8d201a75b58,2023/10/15 05:02:31.391+00,FairfaxCounty,2023/10/15 05:02:31.391+00,FairfaxCounty
-77.1420881331366,38.7222009766177,"4812",FORT BELVOIR UPPER,ES,Elementary School,3-6,5970 MEERES RD,FORT BELVOIR,"22060",https://fortbelvoires.fcps.edu/,"7037812700","3",2023_24,cc9cbb8f-1b8b-4b15-827c-e9dd6f23b542,2023/10/15 05:02:31.391+00,FairfaxCounty,2023/10/15 05:02:31.391+00,FairfaxCounty
-77.2332160164893,38.7174874245292,"4813",LAUREL HILL,ES,Elementary School,K-6,8390 LAUREL CREST DR,LORTON,"22079",https://laurelhilles.fcps.edu/,"7035515300","4",2023_24,17a38fc7-f8b0-42d7-a344-d1aea2c334e3,2023/10/15 05:02:31.391+00,FairfaxCounty,2023/10/15 05:02:31.391+00,FairfaxCounty
-77.2598572349436,38.7179280740007,"4814",HALLEY,ES,Elementary School,K-6,8850 CROSS CHASE CIR,FAIRFAX STATION,"22039",https://halleyes.fcps.edu/,"7035515700","4",2023_24,b913a375-66de-400d-93ce-5ad4e4911265,2023/10/15 05:02:31.391+00,FairfaxCounty,2023/10/15 05:02:31.391+00,FairfaxCounty
-77.1893588232925,38.9464447860178,"4815",CHURCHILL ROAD,ES,Elementary School,K-6,7100 CHURCHILL RD,MCLEAN,"22101",https://churchillroades.fcps.edu/,"7032888400","1",2023_24,2d5ad954-0e26-4c24-9420-5cb55e3dcfd0,2023/10/15 05:02:31.391+00,FairfaxCounty,2023/10/15 05:02:31.391+00,FairfaxCounty
-77.3622328613742,38.9149495976448,"4816",CROSSFIELD,ES,Elementary School,K-6,2791 FOX MILL RD,HERNDON,"20171",https://crossfieldes.fcps.edu/,"7032951100","1",2023_24,1e5a72ff-11c1-4fb8-b1b9-4b6c471a1e2a,2023/10/15 05:02:31.391+00,FairfaxCounty,2023/10/15 05:02:31.391+00,FairfaxCounty
-77.2703349768292,38.7831240416474,"4817",WHITE OAKS,ES,Elementary School,K-6,6130 SHIPLETT BLVD,BURKE,"22015",https://whiteoakses.fcps.edu/,"7039231400","4",2023_24,2db2d82d-10d3-4d91-b884-77beec100dc7,2023/10/15 05:02:31.391+00,FairfaxCounty,2023/10/15 05:02:31.391+00,FairfaxCounty
-77.223264610042,38.8031628599135,"4818",RAVENSWORTH,ES,Elementary School,K-6,5411 NUTTING DR,SPRINGFIELD,"22151",https://ravensworthes.fcps.edu/,"7034263600","4",2023_24,b8224982-dec0-4a0a-9e26-59f84083fdb2,2023/10/15 05:02:31.391+00,FairfaxCounty,2023/10/15 05:02:31.391+00,FairfaxCounty
-77.2403320674439,38.7920910485638,"4819",CARDINAL FOREST,ES,Elementary School,K-6,8600 FORRESTER BLVD,SPRINGFIELD,"22152",https://cardinalforestes.fcps.edu/,"7039235200","4",2023_24,ab58aeb6-b61b-4e84-84fa-a968a51cb4fa,2023/10/15 05:02:31.391+00,FairfaxCounty,2023/10/15 05:02:31.391+00,FairfaxCounty
-77.2416624536976,38.8048497044806,"4820",KINGS PARK,ES,Elementary School,K-3,5400 HARROW WAY,SPRINGFIELD,"22151",https://kingsparkes.fcps.edu/,"7034267000","4",2023_24,0b52d43f-c358-415b-ba4a-8b82fa50efd0,2023/10/15 05:02:31.391+00,FairfaxCounty,2023/10/15 05:02:31.391+00,FairfaxCounty
-77.2346185980149,38.8038602056737,"4821",KINGS GLEN,ES,Elementary School,4-6,5401 DANBURY FOREST DR,SPRINGFIELD,"22151",https://kingsglenes.fcps.edu/,"7032394000","4",2023_24,1c276bf8-3cca-4dd5-ab9b-184e7536cb92,2023/10/15 05:02:31.391+00,FairfaxCounty,2023/10/15 05:02:31.391+00,FairfaxCounty
-77.218545541279,38.7065678997496,"4822",LORTON STATION,ES,Elementary School,K-6,9298 LEWIS CHAPEL RD,LORTON,"22079",https://lortonstationes.fcps.edu/,"5716426000","6",2023_24,d662892d-c62f-411f-afe7-8fd54fdca756,2023/10/15 05:02:31.391+00,FairfaxCounty,2023/10/15 05:02:31.391+00,FairfaxCounty
-77.2096764081722,38.684899265326,"4823",GUNSTON,ES,Elementary School,K-6,10100 GUNSTON RD,LORTON,"22079",https://gunstones.fcps.edu/,"7035413600","4",2023_24,036be709-09a0-4056-80bb-da2773988109,2023/10/15 05:02:31.391+00,FairfaxCounty,2023/10/15 05:02:31.391+00,FairfaxCounty
-77.0948174027224,38.7297748920444,"4824",RIVERSIDE,ES,Elementary School,K-6,8410 OLD MT VERNON RD,ALEXANDRIA,"22309",https://riversidees.fcps.edu/,"7037996000","3",2023_24,b9ecbb17-61fb-4fa3-a18e-2745b6e1aead,2023/10/15 05:02:31.391+00,FairfaxCounty,2023/10/15 05:02:31.391+00,FairfaxCounty
-77.1573410769765,38.8021496914922,"4825",BREN MAR PARK,ES,Elementary School,K-5,6344 BERYL RD,ALEXANDRIA,"22312",https://brenmarparkes.fcps.edu/,"7039147200","3",2023_24,13aaa6e7-25f6-48ec-8968-083a5fc90594,2023/10/15 05:02:31.391+00,FairfaxCounty,2023/10/15 05:02:31.391+00,FairfaxCounty
-77.3465226199735,38.9654523414113,"4826",LAKE ANNE,ES,Elementary School,K-6,11510 NORTH SHORE DR,RESTON,"20190",https://lakeannees.fcps.edu/,"7033263500","1",2023_24,43dc407d-01ac-4844-992d-109ad3ee28eb,2023/10/15 05:02:31.391+00,FairfaxCounty,2023/10/15 05:02:31.391+00,FairfaxCounty
-77.0999808605529,38.7423673339745,"4827",MOUNT VERNON WOODS,ES,Elementary School,K-6,4015 FIELDING ST,ALEXANDRIA,"22309",https://mountvernonwoodses.fcps.edu/,"7036192800","3",2023_24,53266ca6-61f6-407e-9fae-cdde2bd3d6cd,2023/10/15 05:02:31.391+00,FairfaxCounty,2023/10/15 05:02:31.391+00,FairfaxCounty
-77.1406873762978,38.7491525263581,"4828",HAYFIELD,ES,Elementary School,K-6,7633 TELEGRAPH RD,ALEXANDRIA,"22315",https://hayfieldes.fcps.edu/,"7039247400","6",2023_24,f85f1414-07ad-45d9-ac46-91ad2a58a629,2023/10/15 05:02:31.391+00,FairfaxCounty,2023/10/15 05:02:31.391+00,FairfaxCounty
-77.2403581846426,38.7391823236058,"4829",NEWINGTON FOREST,ES,Elementary School,K-6,8001 NEWINGTON FOREST AVE,SPRINGFIELD,"22153",https://newingtonforestes.fcps.edu/,"7039232600","4",2023_24,3169ec5a-b2a8-4343-8070-7edf1c9b60db,2023/10/15 05:02:31.391+00,FairfaxCounty,2023/10/15 05:02:31.391+00,FairfaxCounty
-77.1238762571484,38.7903055508656,"4830",BUSH HILL,ES,Elementary School,K-6,5927 WESTCHESTER ST,ALEXANDRIA,"22310",https://bushhilles.fcps.edu/,"7039245600","3",2023_24,db281939-3cab-47ff-92ee-29d2191c2d1e,2023/10/15 05:02:31.391+00,FairfaxCounty,2023/10/15 05:02:31.391+00,FairfaxCounty
-77.1451404862992,38.7811176701791,"4831",FRANCONIA,ES,Elementary School,K-6,6301 BEULAH ST,ALEXANDRIA,"22310",https://franconiaes.fcps.edu/,"7038222200","3",2023_24,5620aa12-62ff-4f52-b0e9-0319bbbfae3f,2023/10/15 05:02:31.391+00,FairfaxCounty,2023/10/15 05:02:31.391+00,FairfaxCounty
-77.1736262039801,38.9038741172798,"4832",HAYCOCK,ES,Elementary School,K-6,6616 HAYCOCK RD,FALLS CHURCH,"22043",https://haycockes.fcps.edu/,"7035314000","2",2023_24,a8039846-a170-48c0-b3c0-306bd4dc5bb4,2023/10/15 05:02:31.391+00,FairfaxCounty,2023/10/15 05:02:31.391+00,FairfaxCounty
-77.2597273269748,38.8477087058811,"4833",MANTUA,ES,Elementary School,K-6,9107 HORNER CT,FAIRFAX,"22031",https://mantuaes.fcps.edu/,"7036456300","5",2023_24,2890b539-e2be-4d91-a833-3ca88bd9b25d,2023/10/15 05:02:31.391+00,FairfaxCounty,2023/10/15 05:02:31.391+00,FairfaxCounty
-77.1537412781019,38.8681358084355,"4834",BAILEY'S UPPER,ES,Elementary School,3-5,6245 LEESBURG PIKE,FALLS CHURCH,"22044",https://baileyses.fcps.edu/,"7035032700","2",2023_24,8886cdfd-c251-4edf-8105-ecc3205c4642,2023/10/15 05:02:31.391+00,FairfaxCounty,2023/10/15 05:02:31.391+00,FairfaxCounty
-77.1437498143121,38.7214188632605,"4835",FORT BELVOIR PRIMARY,ES,Elementary School,K-2,5980 MEERES RD,FORT BELVOIR,"22060",https://fortbelvoires.fcps.edu/,"7037812700","3",2023_24,ed91498a-cdfd-4f34-adcd-fa5b01c0443a,2023/10/15 05:02:31.391+00,FairfaxCounty,2023/10/15 05:02:31.391+00,FairfaxCounty
-77.4032328559671,38.9475142369033,"4836",MCNAIR UPPER,ES,Elementary School,3-6,2410 FOX MILL RD,HERNDON,"20171",https://mcnaires.fcps.edu/,"7037934800","5",2023_24,50004552-e736-4ed1-a5ee-25d58714d871,2023/10/15 05:02:31.391+00,FairfaxCounty,2023/10/15 05:02:31.391+00,FairfaxCounty
